STARLINK-5274           
1 55395U 23014E   26068.38374395 -.00000586  00000+0 -41289-4 0  9999
2 55395  70.0000  65.0584 0003090 264.8556  95.2251 14.98326744172015
LEMUR-2-LUCILLE-ROSE    
1 65403U 25135BV  26068.85671001  .00014478  00000+0  12144-2 0  9991
2 65403  97.7607 185.3540 0009982 240.4750 119.5478 14.98437227 33752
